LYNK TOWER 3            
1 55046U 23001AP  26068.68752747  .00013886  00000+0  42324-3 0  9997
2 55046  97.3321 129.5399 0009859 112.8813 247.3472 15.34026505176644
STARLINK-35750          
1 66209U 25244D   26068.75749545  .00028065  00000+0  95626-3 0  9999
2 66209  53.1591 229.3372 0001083  80.4062 279.7061 15.30194327 21672
